$$SOE
2460728.500000000, A.D. 2025-Feb-22 00:00:00.0000, 7.687029726529783E+07, -3.620895510849896E+08, 1.255056771652861E+07,
2460735.500000000, A.D. 2025-Mar-01 00:00:00.0000, 8.748280779579438E+07, -3.597302573006901E+08, 1.225969467219813E+07,
2460742.500000000, A.D. 2025-Mar-08 00:00:00.0000, 9.801177064432073E+07, -3.570274458915519E+08, 1.195711192934221E+07,
2460749.500000000, A.D. 2025-Mar-15 00:00:00.0000, 1.084471419450087E+08, -3.539837278071037E+08, 1.164310923738737E+07,
2460756.500000000, A.D. 2025-Mar-22 00:00:00.0000, 1.187789389900893E+08, -3.506019425819898E+08, 1.131798434263174E+07,
2460763.500000000, A.D. 2025-Mar-29 00:00:00.0000, 1.289972406012023E+08, -3.468851600326973E+08, 1.098204289476593E+07,
2460770.500000000, A.D. 2025-Apr-05 00:00:00.0000, 1.390921892941375E+08, -3.428366813461579E+08, 1.063559827956779E+07,
2460777.500000000, A.D. 2025-Apr-12 00:00:00.0000, 1.490539933307470E+08, -3.384600394515986E+08, 1.027897156224093E+07,
2460784.500000000, A.D. 2025-Apr-19 00:00:00.0000, 1.588729284901971E+08, -3.337589995508715E+08, 9.912491485751927E+06,
2460791.500000000, A.D. 2025-Apr-26 00:00:00.0000, 1.685393398508120E+08, -3.287375600034208E+08, 9.536494481841519E+06,
2460798.500000000, A.D. 2025-May-03 00:00:00.0000, 1.780436437157945E+08, -3.233999535394102E+08, 9.151324685049057E+06,
2460805.500000000, A.D. 2025-May-10 00:00:00.0000, 1.873763297308382E+08, -3.177506487841303E+08, 8.757333946942493E+06,
2460812.500000000, A.D. 2025-May-17 00:00:00.0000, 1.965279632503035E+08, -3.117943521252071E+08, 8.354881842823893E+06,
2460819.500000000, A.D. 2025-May-24 00:00:00.0000, 2.054891881473909E+08, -3.055360099676227E+08, 7.944335649701759E+06,
2460826.500000000, A.D. 2025-May-31 00:00:00.0000, 2.142507305079076E+08, -2.989808110581117E+08, 7.526070282298312E+06,
2460833.500000000, A.D. 2025-Jun-07 00:00:00.0000, 2.228034028256061E+08, -2.921341876670969E+08, 7.100468322033912E+06,
2460840.500000000, A.D. 2025-Jun-14 00:00:00.0000, 2.311381063494087E+08, -2.850018162829777E+08, 6.667920300292671E+06,
2460847.500000000, A.D. 2025-Jun-21 00:00:00.0000, 2.392458328142307E+08, -2.775896210698259E+08, 6.228824855033532E+06,
2460854.500000000, A.D. 2025-Jun-28 00:00:00.0000, 2.471176687053186E+08, -2.699037783010018E+08, 5.783588616160929E+06,
2460861.500000000, A.D. 2025-Jul-05 00:00:00.0000, 2.547448005676579E+08, -2.619507195942672E+08, 5.332626134018600E+06,
2460868.500000000, A.D. 2025-Jul-12 00:00:00.0000, 2.621185201987955E+08, -2.537371347405885E+08, 4.876359894071862E+06,
2460875.500000000, A.D. 2025-Jul-19 00:00:00.0000, 2.692302299412982E+08, -2.452699746899445E+08, 4.415220353122801E+06,
2460882.500000000, A.D. 2025-Jul-26 00:00:00.0000, 2.760714483079908E+08, -2.365564547368960E+08, 3.949645972606912E+06,
2460889.500000000, A.D. 2025-Aug-02 00:00:00.0000, 2.826338160261832E+08, -2.276040578666407E+08, 3.480083243751243E+06,
2460896.500000000, A.D. 2025-Aug-09 00:00:00.0000, 2.889091025434344E+08, -2.184205382544943E+08, 3.006986699880883E+06,
2460903.500000000, A.D. 2025-Aug-16 00:00:00.0000, 2.948892130892355E+08, -2.090139249555857E+08, 2.530818901911691E+06,
2460910.500000000, A.D. 2025-Aug-23 00:00:00.0000, 3.005661966030033E+08, -1.993925257361056E+08, 2.052050369703680E+06,
2460917.500000000, A.D. 2025-Aug-30 00:00:00.0000, 3.059322548795530E+08, -1.895649302969717E+08, 1.571159486180231E+06,
2460924.500000000, A.D. 2025-Sep-06 00:00:00.0000, 3.109797515398049E+08, -1.795400118563045E+08, 1.088632585235149E+06,
2460931.500000000, A.D. 2025-Sep-13 00:00:00.0000, 3.157012191792926E+08, -1.693269295395506E+08, 6.049641724273637E+05,
2460938.500000000, A.D. 2025-Sep-20 00:00:00.0000, 3.200893679882300E+08, -1.589351331819690E+08, 1.206568419003487E+05,
2460945.500000000, A.D. 2025-Sep-27 00:00:00.0000, 3.241370969243146E+08, -1.483743673897450E+08, -3.637789550806731E+05,
2460952.500000000, A.D. 2025-Oct-04 00:00:00.0000, 3.278375054445012E+08, -1.376546742786778E+08, -8.478250626332462E+05,
2460959.500000000, A.D. 2025-Oct-11 00:00:00.0000, 3.311839054417198E+08, -1.267863957891783E+08, -1.330955738568790E+06,
2460966.500000000, A.D. 2025-Oct-18 00:00:00.0000, 3.341698336864467E+08, -1.157801758032682E+08, -1.812637789196581E+06,
2460973.500000000, A.D. 2025-Oct-25 00:00:00.0000, 3.367890649263710E+08, -1.046469619991404E+08, -2.292330734940559E+06,
2460980.500000000, A.D. 2025-Nov-01 00:00:00.0000, 3.390356256951962E+08, -9.339800737004042E+07, -2.769487011667028E+06,
2460987.500000000, A.D. 2025-Nov-08 00:00:00.0000, 3.409038088743263E+08, -8.204487137754028E+07, -3.243552216156516E+06,
2460994.500000000, A.D. 2025-Nov-15 00:00:00.0000, 3.423881891600735E+08, -7.059942073321588E+07, -3.713965417079397E+06,
2461001.500000000, A.D. 2025-Nov-22 00:00:00.0000, 3.434836398371620E+08, -5.907382951854131E+07, -4.180159553724095E+06,
2461008.500000000, A.D. 2025-Nov-29 00:00:00.0000, 3.441853507016816E+08, -4.748057743028910E+07, -4.641561818508273E+06,
2461015.500000000, A.D. 2025-Dec-06 00:00:00.0000, 3.444888448559947E+08, -3.583244620923337E+07, -5.097593827840833E+06,
2461022.500000000, A.D. 2025-Dec-13 00:00:00.0000, 3.443899948006088E+08, -2.414251754643522E+07, -5.547671899689311E+06,
2461029.500000000, A.D. 2025-Dec-20 00:00:00.0000, 3.438850412933165E+08, -1.242417136071537E+07, -5.991207678166859E+06,
2461036.500000000, A.D. 2025-Dec-27 00:00:00.0000, 3.429706138746665E+08, -6.910817660826249E+05, -6.427608797855956E+06,
2461043.500000000, A.D. 2026-Jan-03 00:00:00.0000, 3.416437515695808E+08, 1.104278874704431E+07, -6.856279507067312E+06,
2461050.500000000, A.D. 2026-Jan-10 00:00:00.0000, 3.399019238357684E+08, 2.276319633145943E+07, -7.276621318307910E+06,
2461057.500000000, A.D. 2026-Jan-17 00:00:00.0000, 3.377430519429899E+08, 3.445562400797370E+07, -7.688033717420950E+06,
2461064.500000000, A.D. 2026-Jan-24 00:00:00.0000, 3.351655308030373E+08, 4.610529121598918E+07, -8.089914939178741E+06,
2461071.500000000, A.D. 2026-Jan-31 00:00:00.0000, 3.321682512061116E+08, 5.769716478175348E+07, -8.481662814366419E+06,
2461078.500000000, A.D. 2026-Feb-07 00:00:00.0000, 3.287506224478989E+08, 6.921597134653939E+07, -8.862675700761981E+06,
2461085.500000000, A.D. 2026-Feb-14 00:00:00.0000, 3.249125955130570E+08, 8.064621133647799E+07, -9.232353524546955E+06,
2461092.500000000, A.D. 2026-Feb-21 00:00:00.0000, 3.206546870995600E+08, 9.197217514255282E+07, -9.590098922646929E+06,
2461099.500000000, A.D. 2026-Feb-28 00:00:00.0000, 3.159780032779351E+08, 1.031779627547935E+08, -9.935318293385260E+06,
2461106.500000000, A.D. 2026-Mar-07 00:00:00.0000, 3.108842606015512E+08, 1.142475049886610E+08, -1.026742272636819E+07,
2461113.500000000, A.D. 2026-Mar-14 00:00:00.0000, 3.053758073030848E+08, 1.251645840418038E+08, -1.058582925798198E+07,
2461120.500000000, A.D. 2026-Mar-21 00:00:00.0000, 2.994556461874991E+08, 1.359128563436285E+08, -1.088996237929691E+07,
2461127.500000000, A.D. 2026-Mar-28 00:00:00.0000, 2.931274570274251E+08, 1.464758787941707E+08, -1.117925552615420E+07,
2461134.500000000, A.D. 2026-Apr-04 00:00:00.0000, 2.863956176727877E+08, 1.568371374882257E+08, -1.145315257233513E+07,
2461141.500000000, A.D. 2026-Apr-11 00:00:00.0000, 2.792652239604283E+08, 1.669800786090360E+08, -1.171110937753746E+07,
2461148.500000000, A.D. 2026-Apr-18 00:00:00.0000, 2.717421083830038E+08, 1.768881415063480E+08, -1.195259540222789E+07,
2461155.500000000, A.D. 2026-Apr-25 00:00:00.0000, 2.638328573462677E+08, 1.865447939727511E+08, -1.217709538854706E+07,
2461162.500000000, A.D. 2026-May-02 00:00:00.0000, 2.555448268131096E+08, 1.959335696675580E+08, -1.238411110755276E+07,
2461169.500000000, A.D. 2026-May-09 00:00:00.0000, 2.468861562157660E+08, 2.050381075808741E+08, -1.257316318348024E+07,
2461176.500000000, A.D. 2026-May-16 00:00:00.0000, 2.378657807659543E+08, 2.138421936126782E+08, -1.274379301134138E+07,
2461183.500000000, A.D. 2026-May-23 00:00:00.0000, 2.284934419627384E+08, 2.223298051949719E+08, -1.289556468137603E+07,
2461190.500000000, A.D. 2026-May-30 00:00:00.0000, 2.187796939551467E+08, 2.304851591500956E+08, -1.302806668350391E+07,
2461197.500000000, A.D. 2026-Jun-06 00:00:00.0000, 2.087359051825240E+08, 2.382927593714038E+08, -1.314091361830287E+07,
2461204.500000000, A.D. 2026-Jun-13 00:00:00.0000, 1.983742587206680E+08, 2.457374443527647E+08, -1.323374822415277E+07,
2461211.500000000, A.D. 2026-Jun-20 00:00:00.0000, 1.877077505932091E+08, 2.528044372749877E+08, -1.330624342361340E+07,
2461218.500000000, A.D. 2026-Jun-27 00:00:00.0000, 1.767501841169291E+08, 2.594793980627715E+08, -1.335810424705058E+07,
2461225.500000000, A.D. 2026-Jul-04 00:00:00.0000, 1.655161600682137E+08, 2.657484763620835E+08, -1.338906968219241E+07,
2461232.500000000, A.D. 2026-Jul-11 00:00:00.0000, 1.540210627345413E+08, 2.715983649992430E+08, -1.339891446846388E+07,
2461239.500000000, A.D. 2026-Jul-18 00:00:00.0000, 1.422810417795112E+08, 2.770163536100655E+08, -1.338745082662140E+07,
2461246.500000000, A.D. 2026-Jul-25 00:00:00.0000, 1.303129898118385E+08, 2.819903820761373E+08, -1.335453010926025E+07,
2461253.500000000, A.D. 2026-Aug-01 00:00:00.0000, 1.181345156069837E+08, 2.865090933291197E+08, -1.330004436368483E+07,
2461260.500000000, A.D. 2026-Aug-08 00:00:00.0000, 1.057639131355376E+08, 2.905618850751578E+08, -1.322392781273970E+07,
2461267.500000000, A.D. 2026-Aug-15 00:00:00.0000, 9.322012679639293E+07, 2.941389604631617E+08, -1.312615823824173E+07,
2461274.500000000, A.D. 2026-Aug-22 00:00:00.0000, 8.052271212820856E+07, 2.972313784787931E+08, -1.300675808206099E+07,
2461281.500000000, A.D. 2026-Aug-29 00:00:00.0000, 6.769178979077910E+07, 2.998311022295514E+08, -1.286579515075682E+07,
2461288.500000000, A.D. 2026-Sep-05 00:00:00.0000, 5.474799506784597E+07, 3.019310417977431E+08, -1.270338333653904E+07,
2461295.500000000, A.D. 2026-Sep-12 00:00:00.0000, 4.171242553120435E+07, 3.035250937280034E+08, -1.251968336355306E+07,
$$EOE